{
  "type": "FeatureCollection",
  "features": [
    {
      "type": "Feature",
      "properties": {
        "norad_id": 44333,
        "name": "AT&T T-16",
        "group": "intelsat",
        "lat": 0.02340014964785776,
        "lon": 151.08735091385307,
        "alt_km": 35784.17705203265,
        "timestamp": "2025-12-09T11:33:54.468505+00:00",
        "meta_object_name": "AT&T T-16",
        "meta_object_id": "2019-034A",
        "meta_epoch": "2025-12-09T04:51:28.033056",
        "meta_mean_motion": 1.00269398,
        "meta_eccentricity": 6.16e-05,
        "meta_inclination": 0.023,
        "meta_ra_of_asc_node": 59.8704,
        "meta_arg_of_pericenter": 96.056,
        "meta_mean_anomaly": 254.2817,
        "meta_ephemeris_type": 0,
        "meta_classification_type": "U",
        "meta_norad_cat_id": 44333,
        "meta_element_set_no": 999,
        "meta_rev_at_epoch": 2372,
        "meta_bstar": 0,
        "meta_mean_motion_dot": -1.13e-06,
        "meta_mean_motion_ddot": 0,
        "tle_line1": "1 44333U 19034A   25343.20240779 -.00000113  00000+0  00000+0 0  9996",
        "tle_line2": "2 44333   0.0230  59.8704 0000616  96.0560 254.2817  1.00269398 23727"
      },
      "geometry": {
        "type": "Point",
        "coordinates": [
          151.08735091385307,
          0.02340014964785776
        ]
      }
    },
    {
      "type": "Feature",
      "properties": {
        "norad_id": 44476,
        "name": "INTELSAT 39 (IS-39)",
        "group": "intelsat",
        "lat": -0.006360575880681335,
        "lon": -46.10069166464858,
        "alt_km": 35790.568548775926,
        "timestamp": "2025-12-09T11:33:54.468516+00:00",
        "meta_object_name": "INTELSAT 39 (IS-39)",
        "meta_object_id": "2019-049B",
        "meta_epoch": "2025-12-09T03:35:43.926144",
        "meta_mean_motion": 1.00270125,
        "meta_eccentricity": 0.0001017,
        "meta_inclination": 0.0147,
        "meta_ra_of_asc_node": 314.4755,
        "meta_arg_of_pericenter": 198.5375,
        "meta_mean_anomaly": 41.0167,
        "meta_ephemeris_type": 0,
        "meta_classification_type": "U",
        "meta_norad_cat_id": 44476,
        "meta_element_set_no": 999,
        "meta_rev_at_epoch": 2322,
        "meta_bstar": 0,
        "meta_mean_motion_dot": 3.6e-07,
        "meta_mean_motion_ddot": 0,
        "tle_line1": "1 44476U 19049B   25343.14981396  .00000036  00000+0  00000+0 0  9993",
        "tle_line2": "2 44476   0.0147 314.4755 0001017 198.5375  41.0167  1.00270125 23221"
      },
      "geometry": {
        "type": "Point",
        "coordinates": [
          -46.10069166464858,
          -0.006360575880681335
        ]
      }
    },
    {
      "type": "Feature",
      "properties": {
        "norad_id": 46114,
        "name": "GALAXY 30 (G-30)",
        "group": "intelsat",
        "lat": 0.026572172305620735,
        "lon": 126.9200545449193,
        "alt_km": 35792.71035356739,
        "timestamp": "2025-12-09T11:33:54.468527+00:00",
        "meta_object_name": "GALAXY 30 (G-30)",
        "meta_object_id": "2020-056C",
        "meta_epoch": "2025-12-09T02:50:38.725728",
        "meta_mean_motion": 1.00271328,
        "meta_eccentricity": 0.0002397,
        "meta_inclination": 0.0174,
        "meta_ra_of_asc_node": 357.6559,
        "meta_arg_of_pericenter": 259.2548,
        "meta_mean_anomaly": 98.8607,
        "meta_ephemeris_type": 0,
        "meta_classification_type": "U",
        "meta_norad_cat_id": 46114,
        "meta_element_set_no": 999,
        "meta_rev_at_epoch": 1938,
        "meta_bstar": 0,
        "meta_mean_motion_dot": 3.9e-07,
        "meta_mean_motion_ddot": 0,
        "tle_line1": "1 46114U 20056C   25343.11850377  .00000039  00000+0  00000+0 0  9998",
        "tle_line2": "2 46114   0.0174 357.6559 0002397 259.2548  98.8607  1.00271328 19389"
      },
      "geometry": {
        "type": "Point",
        "coordinates": [
          126.9200545449193,
          0.026572172305620735
        ]
      }
    },
    {
      "type": "Feature",
      "properties": {
        "norad_id": 54026,
        "name": "GALAXY 33 (G-33)",
        "group": "intelsat",
        "lat": 0.011047789271853764,
        "lon": 118.92885816712949,
        "alt_km": 35792.184927609684,
        "timestamp": "2025-12-09T11:33:54.468539+00:00",
        "meta_object_name": "GALAXY 33 (G-33)",
        "meta_object_id": "2022-128A",
        "meta_epoch": "2025-12-09T04:34:41.849760",
        "meta_mean_motion": 1.00272048,
        "meta_eccentricity": 0.0002243,
        "meta_inclination": 0.0141,
        "meta_ra_of_asc_node": 305.585,
        "meta_arg_of_pericenter": 304.0405,
        "meta_mean_anomaly": 124.2365,
        "meta_ephemeris_type": 0,
        "meta_classification_type": "U",
        "meta_norad_cat_id": 54026,
        "meta_element_set_no": 999,
        "meta_rev_at_epoch": 1183,
        "meta_bstar": 0,
        "meta_mean_motion_dot": 8.1e-07,
        "meta_mean_motion_ddot": 0,
        "tle_line1": "1 54026U 22128A   25343.19076215  .00000081  00000+0  00000+0 0  9997",
        "tle_line2": "2 54026   0.0141 305.5850 0002243 304.0405 124.2365  1.00272048 11838"
      },
      "geometry": {
        "type": "Point",
        "coordinates": [
          118.92885816712949,
          0.011047789271853764
        ]
      }
    },
    {
      "type": "Feature",
      "properties": {
        "norad_id": 54027,
        "name": "GALAXY 34 (G-34)",
        "group": "intelsat",
        "lat": 0.019047554979431194,
        "lon": 122.9986095240994,
        "alt_km": 35789.67419131394,
        "timestamp": "2025-12-09T11:33:54.468551+00:00",
        "meta_object_name": "GALAXY 34 (G-34)",
        "meta_object_id": "2022-128B",
        "meta_epoch": "2025-12-09T02:17:01.500000",
        "meta_mean_motion": 1.00270395,
        "meta_eccentricity": 0.0001398,
        "meta_inclination": 0.0261,
        "meta_ra_of_asc_node": 321.5933,
        "meta_arg_of_pericenter": 284.4162,
        "meta_mean_anomaly": 97.406,
        "meta_ephemeris_type": 0,
        "meta_classification_type": "U",
        "meta_norad_cat_id": 54027,
        "meta_element_set_no": 999,
        "meta_rev_at_epoch": 1200,
        "meta_bstar": 0,
        "meta_mean_motion_dot": 0,
        "meta_mean_motion_ddot": 0,
        "tle_line1": "1 54027U 22128B   25343.09515625  .00000000  00000+0  00000+0 0  9991",
        "tle_line2": "2 54027   0.0261 321.5933 0001398 284.4162  97.4060  1.00270395 12009"
      },
      "geometry": {
        "type": "Point",
        "coordinates": [
          122.9986095240994,
          0.019047554979431194
        ]
      }
    },
    {
      "type": "Feature",
      "properties": {
        "norad_id": 54243,
        "name": "GALAXY 31 (G-31)",
        "group": "intelsat",
        "lat": -0.004115892000564609,
        "lon": 130.93491096090577,
        "alt_km": 35792.16665646439,
        "timestamp": "2025-12-09T11:33:54.468563+00:00",
        "meta_object_name": "GALAXY 31 (G-31)",
        "meta_object_id": "2022-153A",
        "meta_epoch": "2025-12-09T04:35:53.292192",
        "meta_mean_motion": 1.00271844,
        "meta_eccentricity": 0.0001916,
        "meta_inclination": 0.0197,
        "meta_ra_of_asc_node": 257.132,
        "meta_arg_of_pericenter": 12.8085,
        "meta_mean_anomaly": 116.2212,
        "meta_ephemeris_type": 0,
        "meta_classification_type": "U",
        "meta_norad_cat_id": 54243,
        "meta_element_set_no": 999,
        "meta_rev_at_epoch": 522,
        "meta_bstar": 0,
        "meta_mean_motion_dot": 1.5e-07,
        "meta_mean_motion_ddot": 0,
        "tle_line1": "1 54243U 22153A   25343.19158903  .00000015  00000+0  00000+0 0  9998",
        "tle_line2": "2 54243   0.0197 257.1320 0001916  12.8085 116.2212  1.00271844  5229"
      },
      "geometry": {
        "type": "Point",
        "coordinates": [
          130.93491096090577,
          -0.004115892000564609
        ]
      }
    },
    {
      "type": "Feature",
      "properties": {
        "norad_id": 54244,
        "name": "GALAXY 32 (G-32)",
        "group": "intelsat",
        "lat": 0.0002916728572839301,
        "lon": 160.92522883778204,
        "alt_km": 35796.15787014762,
        "timestamp": "2025-12-09T11:33:54.468574+00:00",
        "meta_object_name": "GALAXY 32 (G-32)",
        "meta_object_id": "2022-153B",
        "meta_epoch": "2025-12-09T04:53:26.406240",
        "meta_mean_motion": 1.00270511,
        "meta_eccentricity": 0.0002728,
        "meta_inclination": 0.0081,
        "meta_ra_of_asc_node": 341.1607,
        "meta_arg_of_pericenter": 327.581,
        "meta_mean_anomaly": 111.814,
        "meta_ephemeris_type": 0,
        "meta_classification_type": "U",
        "meta_norad_cat_id": 54244,
        "meta_element_set_no": 999,
        "meta_rev_at_epoch": 1123,
        "meta_bstar": 0,
        "meta_mean_motion_dot": -1.72e-06,
        "meta_mean_motion_ddot": 0,
        "tle_line1": "1 54244U 22153B   25343.20377785 -.00000172  00000+0  00000+0 0  9997",
        "tle_line2": "2 54244   0.0081 341.1607 0002728 327.5810 111.8140  1.00270511 11237"
      },
      "geometry": {
        "type": "Point",
        "coordinates": [
          160.92522883778204,
          0.0002916728572839301
        ]
      }
    }
  ]
}